STARLINK-32408          
1 62054U 24216Y   26146.09523203  .00012813  00000+0  47423-3 0  9992
2 62054  42.9982 179.1880 0001259 246.2912 113.7807 15.27587638 85721
STARLINK-32571          
1 62055U 24216Z   26146.11950489  .00007870  00000+0  29508-3 0  9997
2 62055  43.0002 178.5098 0001684 256.2235 103.8429 15.27592639 85820
STARLINK-11465 [DTC]    
1 62057U 24217A   26146.22170410  .00152700  00000+0  12391-2 0  9994
2 62057  53.1577  48.8450 0001476 122.0650 238.0512 15.69769049 87353
STARLINK-11426 [DTC]    
1 62058U 24217B   26146.21680059  .00169955  00000+0  13755-2 0  9994
2 62058  53.1575  48.8162 0001219  63.8181 296.2962 15.69773209 87299
STARLINK-11454 [DTC]    
1 62059U 24217C   26146.25113784  .00185359  00000+0  14973-2 0  9994
2 62059  53.1575  49.0385 0001033 123.6427 236.4689 15.69766978 87356
STARLINK-11473 [DTC]    
1 62060U 24217D   26146.13361365  .00210666  00000+0  16962-2 0  9993
2 62060  53.1575  49.7319 0001208  73.6740 286.4411 15.69762962 87333
STARLINK-11429 [DTC]    
1 62061U 24217E   26145.99155704  .00195991  00000+0  15819-2 0  9998
2 62061  53.1570  50.2614 0000671  90.9765 269.1330 15.69752260 87312
STARLINK-11470 [DTC]    
1 62062U 24217F   26146.17765343  .00208999  00000+0  16806-2 0  9996
2 62062  53.1567  49.2859 0001181 114.3002 245.8139 15.69799404 87285
STARLINK-11427 [DTC]    
1 62063U 24217G   26146.25604233  .00149307  00000+0  12124-2 0  9992
2 62063  53.1579  49.0696 0000942  98.7081 261.4044 15.69766393 87350
STARLINK-11456 [DTC]    
1 62064U 24217H   26146.16294185  .00139596  00000+0  11360-2 0  9994
2 62064  53.1573  49.1895 0001097 116.1555 243.9576 15.69748895 87341
STARLINK-11474 [DTC]    
1 62065U 24217J   26146.27556403  .00169791  00000+0  13741-2 0  9996
2 62065  53.1575  48.4676 0000961  55.8375 304.2734 15.69775340 87365
STARLINK-11463 [DTC]    
1 62066U 24217K   26146.17274882  .00161887  00000+0  13121-2 0  9994
2 62066  53.1580  49.2553 0001001 124.5155 235.5958 15.69766764 87343
STARLINK-11472 [DTC]    
1 62067U 24217L   26146.14342141  .00146972  00000+0  11943-2 0  9994
2 62067  53.1568  49.7941 0000809 103.8520 256.2588 15.69757346 87263
STARLINK-11467 [DTC]    
1 62068U 24217M   26146.16784826  .00077116  00000+0  63510-3 0  9998
2 62068  53.1577  49.2206 0001100  93.8476 266.2668 15.69723957 87346
STARLINK-11460 [DTC]    
1 62069U 24217N   26146.26584700  .00245479  00000+0  19614-2 0  9993
2 62069  53.1583  49.1327 0001189  61.7017 298.4121 15.69836315 87297
STARLINK-32604          
1 62070U 24217P   26146.33335648 -.00005761  00000+0 -15955-3 0  9993
2 62070  53.1584 193.1745 0001114  84.4431 145.3809 15.34388053  5885
STARLINK-32553          
1 62071U 24217Q   26146.29810356  .00017734  00000+0  53456-3 0  9992
2 62071  53.1594 193.4094 0001593  89.6143 270.5042 15.34410799 85358
STARLINK-32603          
1 62072U 24217R   26146.33335648 -.00012459  00000+0 -36809-3 0  9998
2 62072  53.1589 193.3348 0001046  98.7101  48.6999 15.33551259  5883
STARLINK-32444          
1 62073U 24217S   26146.28337898  .00022002  00000+0  66043-3 0  9998
2 62073  53.1596 193.3312 0001285  56.2674 303.8451 15.34398426 85302
STARLINK-32619          
1 62074U 24217T   26146.28548018  .00009825  00000+0  30154-3 0  9999
2 62074  53.1574 193.3275 0000875  52.5554 307.5528 15.34397425 85301
STARLINK-32580          
1 62075U 24217U   26146.24978556  .00009177  00000+0  32155-3 0  9993
2 62075  53.1565 181.0304 0000971  96.6311 263.4800 15.30202930 85479
STARLINK-32617          
1 62076U 24217V   26146.28871862  .00014534  00000+0  50171-3 0  9991
2 62076  53.1600 180.5610 0001625  99.6018 260.5167 15.30211012 85484
SUPERVIEW NEO-2 03      
1 62079U 24218B   26145.40144477  .00000236  00000+0  14197-4 0  9996
2 62079  97.4393 153.0567 0001571  86.6868 273.4546 15.19719339 82980
SUPERVIEW NEO-2 04      
1 62080U 24218C   26145.40144380  .00000224  00000+0  13646-4 0  9996
2 62080  97.4393 153.0618 0001290 113.1506 246.9865 15.19719372 82988
KINEIS-5C               
1 62081U 24219A   26146.31148098  .00000672  00000+0  11394-3 0  9993
2 62081  97.9020 305.7752 0004066  14.3582 345.7740 14.72294113 80534
KINEIS-5D               
1 62082U 24219B   26146.27564111  .00000935  00000+0  15523-3 0  9997
2 62082  97.9132 305.7273 0004624   0.9845 359.1371 14.72399898 80535
KINEIS-5E               
1 62083U 24219C   26146.29288483  .00000634  00000+0  10739-3 0  9995
2 62083  97.8977 305.8665 0005846 349.7622  10.3466 14.72506795 80540
KINEIS-5A               
1 62084U 24219D   26146.33058356  .00000937  00000+0  15678-3 0  9998
2 62084  97.9015 306.2287 0005524  30.2568 329.8958 14.72028632 80558
KINEIS-5B               
1 62085U 24219E   26146.32037749  .00001097  00000+0  15816-3 0  9993
2 62085  98.0047 310.2855 0001856  28.4431 331.6881 14.78276072 80773
STARLINK-11384 [DTC]    
1 62088U 24220A   26145.78234129  .00288092  00000+0  21565-2 0  9997
2 62088  43.0001 298.7596 0003917 273.5824  86.4596 15.71004483 87175
STARLINK-11379 [DTC]    
1 62089U 24220B   26145.84061464  .00141667  00000+0  10884-2 0  9993
2 62089  43.0012 298.3345 0001484 264.0400  96.0298 15.70848691 87080
STARLINK-11387 [DTC]    
1 62090U 24220C   26146.33335648  .00066768  00000+0  52095-3 0  9997
2 62090  43.0001 295.2893 0001315 257.8387  42.1658 15.70780694  5991
STARLINK-11389 [DTC]    
1 62091U 24220D   26145.82998589  .00201137  00000+0  15256-2 0  9998
2 62091  43.0057 298.2467 0004864 263.2869  96.7445 15.70952512 87080
STARLINK-11388 [DTC]    
1 62092U 24220E   26146.14260471  .00237600  00000+0  17971-2 0  9997
2 62092  42.9988 296.2891 0000776 281.6368  78.4412 15.70914004 87138
STARLINK-11345 [DTC]    
1 62093U 24220F   26146.13730609  .00217566  00000+0  16522-2 0  9992
2 62093  42.9986 296.2474 0001518  62.8606 297.2416 15.70880313 87133
STARLINK-11381 [DTC]    
1 62094U 24220G   26146.13199529  .00306234  00000+0  22967-2 0  9994
2 62094  43.0000 296.2040 0001212  43.0222 317.0740 15.70906899 87137
STARLINK-11369 [DTC]    
1 62095U 24220H   26144.47351147  .00147680  00000+0  11322-2 0  9997
2 62095  42.9994 306.1279 0001652 274.2078  85.8601 15.70878390 86979
STARLINK-11303 [DTC]    
1 62096U 24220J   26146.12137746  .00191223  00000+0  14571-2 0  9990
2 62096  43.0007 296.1184 0001901  47.0735 313.0292 15.70881692 87234
STARLINK-11367 [DTC]    
1 62097U 24220K   26145.73455541  .00182377  00000+0  13923-2 0  9993
2 62097  43.0006 298.3748 0002483 285.5045  74.5548 15.70864491 87177
STARLINK-11386 [DTC]    
1 62098U 24220L   26146.11076936  .00177347  00000+0  13546-2 0  9996
2 62098  43.0008 296.0341 0001188 276.5838  83.4894 15.70870485 87134
STARLINK-11380 [DTC]    
1 62099U 24220M   26146.10544222  .00197149  00000+0  15012-2 0  9996
2 62099  43.0012 295.9905 0000942 317.8371  42.2424 15.70880135 87137
STARLINK-33566          
1 62100U 24220N   26146.25595551  .00010679  00000+0  39694-3 0  9991
2 62100  42.9985 112.7799 0001220 268.3289  91.7422 15.27587460 85224
STARLINK-33545          
1 62101U 24220P   26145.97335126  .00016379  00000+0  60317-3 0  9999
2 62101  42.9946 128.8363 0000476 318.6806  41.4009 15.27590891 84845
STARLINK-33562          
1 62102U 24220Q   26146.24645877  .00019797  00000+0  72682-3 0  9993
2 62102  43.0006 127.4441 0001303 271.1489  88.9214 15.27588225 84883
STARLINK-33554          
1 62103U 24220R   26146.23104093  .00012269  00000+0  45449-3 0  9991
2 62103  42.9983 127.3279 0001224 269.3308  90.7403 15.27589877 84813
STARLINK-33555          
1 62104U 24220S   26146.00290544  .00021268  00000+0  77986-3 0  9994
2 62104  42.9974 129.0580 0000407 261.6150  98.4656 15.27592902 84986
STARLINK-33559          
1 62107U 24220V   26145.99904962  .00015685  00000+0  57810-3 0  9990
2 62107  42.9979 129.0330 0000890 281.5075  78.5677 15.27589700 85019
STARLINK-33553          
1 62108U 24220W   26146.25288601  .00016820  00000+0  61914-3 0  9998
2 62108  43.0018 127.4936 0001520 264.3188  95.7490 15.27590632 85059
STARLINK-33556          
1 62109U 24220X   26146.23875416  .00017390  00000+0  63957-3 0  9995
2 62109  42.9990 127.3893 0001088 266.0154  94.0573 15.27599734 85077
STARLINK-33551          
1 62110U 24220Y   26146.25673880  .00014253  00000+0  52623-3 0  9993
2 62110  43.0044 127.5215 0001616 272.1745  87.8922 15.27595234 85059
GUANGCHUAN 01           
1 62111U 24221A   26146.26530520  .00004010  00000+0  23102-3 0  9999
2 62111  49.9434 268.8633 0007617 212.9314 147.1163 15.14474479 82868
GUANGCHUAN 02           
1 62112U 24221B   26146.26769907  .00004230  00000+0  24307-3 0  9995
2 62112  49.9419 268.7933 0006880 257.6511 102.3670 15.14438588 82856
STARLINK-32311          
1 62114U 24222A   26146.05164605  .00015034  00000+0  55448-3 0  9993
2 62114  43.0022  44.3009 0001472 257.3772 102.6915 15.27594768 84914
STARLINK-32470          
1 62115U 24222B   26146.12424056  .00026435  00000+0  96642-3 0  9999
2 62115  43.0007  58.7020 0001486 266.4963  93.5718 15.27589101 84743
STARLINK-32502          
1 62116U 24222C   26145.94990397  .00040178  00000+0  14584-2 0  9999
2 62116  43.0055  59.9715 0002446 284.1086  75.9493 15.27651287 84627
STARLINK-32521          
1 62117U 24222D   26146.06702702  .00011883  00000+0  44051-3 0  9999
2 62117  43.0039  55.5542 0000988 269.4515  90.6224 15.27591062 84622
STARLINK-32549          
1 62118U 24222E   26146.17548847  .00019206  00000+0  70531-3 0  9999
2 62118  43.0008  58.2239 0001278 262.1389  97.9318 15.27595792 84666
STARLINK-32535          
1 62119U 24222F   26146.08889112  .00022397  00000+0  82052-3 0  9999
2 62119  43.0019  55.8365 0001450 274.1614  85.9072 15.27597035 84631
STARLINK-32548          
1 62120U 24222G   26146.16021824  .00022485  00000+0  82363-3 0  9991
2 62120  43.0029  58.9665 0001394 268.2266  91.8426 15.27599643 84608
